[{"OBJECT_NAME":"AEROCUBE 6B","OBJECT_ID":"2014-033AN","EPOCH":"2026-03-09T10:13:48.857088","MEAN_MOTION":14.98232474,"ECCENTRICITY":0.00374529,"INCLINATION":97.7129,"RA_OF_ASC_NODE":236.1645,"ARG_OF_PERICENTER":343.23,"MEAN_ANOMALY":16.7681,"EPHEMERIS_TYPE":0,"CLASSIFICATION_TYPE":"U","NORAD_CAT_ID":40046,"ELEMENT_SET_NO":999,"REV_AT_EPOCH":63181,"BSTAR":0.00066368498,"MEAN_MOTION_DOT":7.941e-5,"MEAN_MOTION_DDOT":0},{"OBJECT_NAME":"STARLINK-5811","OBJECT_ID":"2023-028AY","EPOCH":"2026-03-09T18:15:42.789888","MEAN_MOTION":14.98326371,"ECCENTRICITY":0.00030614,"INCLINATION":70.0008,"RA_OF_ASC_NODE":204.4047,"ARG_OF_PERICENTER":265.1387,"MEAN_ANOMALY":94.9423,"EPHEMERIS_TYPE":0,"CLASSIFICATION_TYPE":"U","NORAD_CAT_ID":55787,"ELEMENT_SET_NO":999,"REV_AT_EPOCH":16703,"BSTAR":-2.524832e-6,"MEAN_MOTION_DOT":-1.23e-6,"MEAN_MOTION_DDOT":0}]
