AEROCUBE 6B             
1 40046U 14033AN  26068.42625992  .00007941  00000+0  66368-3 0  9998
2 40046  97.7129 236.1645 0037452 343.2300  16.7681 14.98232474631816
STARLINK-5811           
1 55787U 23028AY  26068.76091191 -.00000123  00000+0 -25248-5 0  9996
2 55787  70.0008 204.4047 0003061 265.1387  94.9423 14.98326371167034
